QIANFAN-60              
1 62790U 25016F   25246.22050501  .00000150  00000+0  21429-3 0  9998
2 62790  88.9775 113.4852 0013471 277.5593  82.4028 13.50963760 33659
QIANFAN-61              
1 62791U 25016G   25246.23295773  .00000130  00000+0  18301-3 0  9995
2 62791  88.9843 113.5734 0012916 276.0472  83.9207 13.50969330 33675
QIANFAN-62              
1 62792U 25016H   25246.23700896  .00000119  00000+0  16613-3 0  9994
2 62792  88.9789 113.4958 0014308 276.2609  83.6912 13.50963300 33663
QIANFAN-63              
1 62793U 25016J   25246.17536757  .00000131  00000+0  18462-3 0  9999
2 62793  88.9796 113.4440 0014167 281.5916  78.3644 13.50960308 33692
QIANFAN-64              
1 62794U 25016K   25246.24111485  .00000133  00000+0  18759-3 0  9996
2 62794  88.9782 113.4309 0011929 274.6203  85.3585 13.50962952 33696
QIANFAN-65              
1 62795U 25016L   25246.22469843  .00000141  00000+0  19937-3 0  9997
2 62795  88.9779 113.4592 0012135 276.7920  83.1850 13.50966894 33674
QIANFAN-66              
1 62796U 25016M   25246.17940354  .00000130  00000+0  18289-3 0  9990
2 62796  88.9798 113.4142 0013194 271.6450  88.3190 13.50961990 33716
QIANFAN-67              
1 62797U 25016N   25246.25751063  .00000133  00000+0  18836-3 0  9998
2 62797  88.9789 113.4416 0013246 279.2107  80.7545 13.50970699 33695
QIANFAN-68              
1 62798U 25016P   25246.18755584  .00000149  00000+0  21287-3 0  9994
2 62798  88.9792 113.4933 0013861 277.3781  82.5794 13.50968256 33663
QIANFAN-69              
1 62799U 25016Q   25246.26577984  .00000128  00000+0  17942-3 0  9990
2 62799  88.9770 113.3734 0014047 278.2254  81.7304 13.50963666 33714
QIANFAN-70              
1 62800U 25016R   25246.20816965  .00000133  00000+0  18814-3 0  9997
2 62800  88.9792 113.4964 0013540 267.5529  92.4072 13.50967630 33660
QIANFAN-71              
1 62801U 25016S   25246.20413446  .00000142  00000+0  20154-3 0  9995
2 62801  88.9786 113.4826 0014009 282.4082  77.5501 13.50967316 33664
QIANFAN-72              
1 62802U 25016T   25246.19995887  .00000133  00000+0  18786-3 0  9996
2 62802  88.9776 113.5012 0017532 288.8942  71.0308 13.50962750 33651
QIANFAN-73              
1 63159U 25046A   25246.24765359  .00000239  00000+0  35124-3 0  9992
2 63159  88.9857 330.3965 0016389  60.7882 299.4906 13.50968882 33845
QIANFAN-74              
1 63160U 25046B   25246.23111286  .00000257  00000+0  37884-3 0  9992
2 63160  88.9857 330.2866 0002128 109.1770 250.9612 13.50974528 33903
QIANFAN-75              
1 63161U 25046C   25246.21888549  .00000255  00000+0  37557-3 0  9999
2 63161  88.9858 330.5199 0017575  63.4363 296.8588 13.50970885 33777
QIANFAN-76              
1 63162U 25046D   25246.21467924  .00000242  00000+0  35578-3 0  9997
2 63162  88.9857 330.5015 0015175  64.9716 295.3009 13.50967189 33782
QIANFAN-77              
1 63163U 25046E   25246.19840628  .00000654  00000+0  46708-3 0  9995
2 63163  88.9853 329.3355 0015721  42.9619 317.2782 13.96033807 34422
QIANFAN-78              
1 63164U 25046F   25246.25589032  .00000252  00000+0  37145-3 0  9991
2 63164  88.9856 330.3624 0016601  66.4265 293.8628 13.50970561 33865
QIANFAN-79              
1 63165U 25046G   25246.21049216  .00000246  00000+0  36163-3 0  9995
2 63165  88.9860 330.4706 0016240  65.1343 295.1495 13.50972753 33801
QIANFAN-80              
1 63166U 25046H   25246.22706714  .00000257  00000+0  37941-3 0  9997
2 63166  88.9857 330.1786 0015350  69.3612 290.9184 13.50972682 33965
QIANFAN-81              
1 63167U 25046J   25246.20647758  .00000246  00000+0  36167-3 0  9995
2 63167  88.9857 330.2491 0016015  58.4877 301.7836 13.50971499 33916
QIANFAN-82              
1 63168U 25046K   25246.23932784  .00000254  00000+0  37390-3 0  9993
2 63168  88.9857 330.2893 0014405  66.4056 293.8606 13.50968451 33901
QIANFAN-83              
1 63169U 25046L   25246.19521634  .00000313  00000+0  39075-3 0  9995
2 63169  88.9857 330.2672 0015440  57.6121 302.6528 13.61945055 33912
QIANFAN-84              
1 63170U 25046M   25246.19396871  .00000259  00000+0  38166-3 0  9999
2 63170  88.9857 330.4269 0017248  62.0181 298.2713 13.50974577 33827
QIANFAN-85              
1 63171U 25046N   25246.19004870  .00000261  00000+0  38490-3 0  9998
2 63171  88.9857 330.2995 0014716  65.4282 294.8401 13.50969416 33897
QIANFAN-86              
1 63172U 25046P   25246.19826710  .00000255  00000+0  37683-3 0  9990
2 63172  88.9859 330.1584 0012731  70.3221 289.9303 13.50969976 33972
QIANFAN-87              
1 63173U 25046Q   25246.24348957  .00000251  00000+0  36987-3 0  9991
2 63173  88.9855 330.2692 0013298  65.2846 294.9688 13.50966480 33918
QIANFAN-88              
1 63174U 25046R   25246.25998667  .00000259  00000+0  38270-3 0  9997
2 63174  88.9857 330.2196 0013881  72.1184 288.1479 13.50973872 33949
QIANFAN-89              
1 63175U 25046S   25246.22281760  .00000258  00000+0  38117-3 0  9993
2 63175  88.9858 330.4124 0017923  62.1867 298.1098 13.50974266 33836
QIANFAN-90              
1 63176U 25046T   25246.25162717  .00000210  00000+0  30681-3 0  9993
2 63176  88.9858 330.3817 0014832  61.6598 298.6047 13.50973358 33858
